{
  "type": "FeatureCollection",
  "features": [
    {
      "type": "Feature",
      "properties": {
        "norad_id": 58701,
        "name": "TIANMU-1 16",
        "group": "weather",
        "lat": 15.948896015260233,
        "lon": 2.8066692075051316,
        "alt_km": 491.86729768044097,
        "timestamp": "2025-12-25T20:42:38.331714+00:00",
        "meta_object_name": "TIANMU-1 16",
        "meta_object_id": "2024-004B",
        "meta_epoch": "2025-12-25T07:23:33.296928",
        "meta_mean_motion": 15.24599128,
        "meta_eccentricity": 0.00044209,
        "meta_inclination": 97.4569,
        "meta_ra_of_asc_node": 180.1092,
        "meta_arg_of_pericenter": 238.639,
        "meta_mean_anomaly": 121.4415,
        "meta_ephemeris_type": 0,
        "meta_classification_type": "U",
        "meta_norad_cat_id": 58701,
        "meta_element_set_no": 999,
        "meta_rev_at_epoch": 10926,
        "meta_bstar": 0.00031186814,
        "meta_mean_motion_dot": 7.621e-05,
        "meta_mean_motion_ddot": 0,
        "tle_line1": "1 58701U 24004B   25359.30802427  .00007621  00000+0  31187-3 0  9999",
        "tle_line2": "2 58701  97.4569 180.1092 0004420 238.6390 121.4415 15.24599128109267"
      },
      "geometry": {
        "type": "Point",
        "coordinates": [
          2.8066692075051316,
          15.948896015260233
        ]
      }
    },
    {
      "type": "Feature",
      "properties": {
        "norad_id": 58702,
        "name": "TIANMU-1 17",
        "group": "weather",
        "lat": -69.13362733849573,
        "lon": -19.02785316642548,
        "alt_km": 496.7322047955777,
        "timestamp": "2025-12-25T20:42:38.331724+00:00",
        "meta_object_name": "TIANMU-1 17",
        "meta_object_id": "2024-004C",
        "meta_epoch": "2025-12-25T07:00:51.309792",
        "meta_mean_motion": 15.24641675,
        "meta_eccentricity": 0.00035801,
        "meta_inclination": 97.4602,
        "meta_ra_of_asc_node": 180.5099,
        "meta_arg_of_pericenter": 239.5803,
        "meta_mean_anomaly": 120.5081,
        "meta_ephemeris_type": 0,
        "meta_classification_type": "U",
        "meta_norad_cat_id": 58702,
        "meta_element_set_no": 999,
        "meta_rev_at_epoch": 10925,
        "meta_bstar": 0.00029028902,
        "meta_mean_motion_dot": 7.096e-05,
        "meta_mean_motion_ddot": 0,
        "tle_line1": "1 58702U 24004C   25359.29226053  .00007096  00000+0  29029-3 0  9991",
        "tle_line2": "2 58702  97.4602 180.5099 0003580 239.5803 120.5081 15.24641675109255"
      },
      "geometry": {
        "type": "Point",
        "coordinates": [
          -19.02785316642548,
          -69.13362733849573
        ]
      }
    },
    {
      "type": "Feature",
      "properties": {
        "norad_id": 58703,
        "name": "TIANMU-1 18",
        "group": "weather",
        "lat": -18.706463458853424,
        "lon": -176.18000550765552,
        "alt_km": 497.65454452534595,
        "timestamp": "2025-12-25T20:42:38.331734+00:00",
        "meta_object_name": "TIANMU-1 18",
        "meta_object_id": "2024-004D",
        "meta_epoch": "2025-12-25T06:37:00.416064",
        "meta_mean_motion": 15.24623884,
        "meta_eccentricity": 0.00029766,
        "meta_inclination": 97.462,
        "meta_ra_of_asc_node": 180.6914,
        "meta_arg_of_pericenter": 236.2553,
        "meta_mean_anomaly": 123.8401,
        "meta_ephemeris_type": 0,
        "meta_classification_type": "U",
        "meta_norad_cat_id": 58703,
        "meta_element_set_no": 999,
        "meta_rev_at_epoch": 10925,
        "meta_bstar": 0.00029067994,
        "meta_mean_motion_dot": 7.102e-05,
        "meta_mean_motion_ddot": 0,
        "tle_line1": "1 58703U 24004D   25359.27569926  .00007102  00000+0  29068-3 0  9990",
        "tle_line2": "2 58703  97.4620 180.6914 0002976 236.2553 123.8401 15.24623884109251"
      },
      "geometry": {
        "type": "Point",
        "coordinates": [
          -176.18000550765552,
          -18.706463458853424
        ]
      }
    },
    {
      "type": "Feature",
      "properties": {
        "norad_id": 58990,
        "name": "INSAT-3DS",
        "group": "weather",
        "lat": 0.04464062383511077,
        "lon": 127.37046783925342,
        "alt_km": 35790.73412139623,
        "timestamp": "2025-12-25T20:42:38.331746+00:00",
        "meta_object_name": "INSAT-3DS",
        "meta_object_id": "2024-033A",
        "meta_epoch": "2025-12-24T23:45:39.809376",
        "meta_mean_motion": 1.00271318,
        "meta_eccentricity": 0.00012552,
        "meta_inclination": 0.0601,
        "meta_ra_of_asc_node": 99.644,
        "meta_arg_of_pericenter": 175.3991,
        "meta_mean_anomaly": 257.2391,
        "meta_ephemeris_type": 0,
        "meta_classification_type": "U",
        "meta_norad_cat_id": 58990,
        "meta_element_set_no": 999,
        "meta_rev_at_epoch": 4532,
        "meta_bstar": 0,
        "meta_mean_motion_dot": -1.35e-06,
        "meta_mean_motion_ddot": 0,
        "tle_line1": "1 58990U 24033A   25358.99004409 -.00000135  00000+0  00000+0 0  9999",
        "tle_line2": "2 58990   0.0601  99.6440 0001255 175.3991 257.2391  1.00271318 45326"
      },
      "geometry": {
        "type": "Point",
        "coordinates": [
          127.37046783925342,
          0.04464062383511077
        ]
      }
    },
    {
      "type": "Feature",
      "properties": {
        "norad_id": 59051,
        "name": "METEOR-M2 4",
        "group": "weather",
        "lat": 18.14256013396249,
        "lon": -46.30158552304665,
        "alt_km": 815.1874021863587,
        "timestamp": "2025-12-25T20:42:38.331757+00:00",
        "meta_object_name": "METEOR-M2 4",
        "meta_object_id": "2024-039A",
        "meta_epoch": "2025-12-25T07:07:07.505760",
        "meta_mean_motion": 14.22403181,
        "meta_eccentricity": 0.00063839,
        "meta_inclination": 98.6785,
        "meta_ra_of_asc_node": 316.0096,
        "meta_arg_of_pericenter": 320.7304,
        "meta_mean_anomaly": 39.341,
        "meta_ephemeris_type": 0,
        "meta_classification_type": "U",
        "meta_norad_cat_id": 59051,
        "meta_element_set_no": 999,
        "meta_rev_at_epoch": 9454,
        "meta_bstar": 4.060944e-05,
        "meta_mean_motion_dot": 4.7e-07,
        "meta_mean_motion_ddot": 0,
        "tle_line1": "1 59051U 24039A   25359.29661465  .00000047  00000+0  40609-4 0  9994",
        "tle_line2": "2 59051  98.6785 316.0096 0006383 320.7304  39.3410 14.22403181 94547"
      },
      "geometry": {
        "type": "Point",
        "coordinates": [
          -46.30158552304665,
          18.14256013396249
        ]
      }
    },
    {
      "type": "Feature",
      "properties": {
        "norad_id": 60133,
        "name": "GOES 19",
        "group": "weather",
        "lat": 0.003036966424052663,
        "lon": -29.913630839886192,
        "alt_km": 35782.04629597586,
        "timestamp": "2025-12-25T20:42:38.331768+00:00",
        "meta_object_name": "GOES 19",
        "meta_object_id": "2024-119A",
        "meta_epoch": "2025-12-25T04:31:42.625056",
        "meta_mean_motion": 1.0027105,
        "meta_eccentricity": 0.00010365,
        "meta_inclination": 0.0152,
        "meta_ra_of_asc_node": 183.0311,
        "meta_arg_of_pericenter": 137.5029,
        "meta_mean_anomaly": 126.1624,
        "meta_ephemeris_type": 0,
        "meta_classification_type": "U",
        "meta_norad_cat_id": 60133,
        "meta_element_set_no": 999,
        "meta_rev_at_epoch": 521,
        "meta_bstar": 0,
        "meta_mean_motion_dot": -2.27e-06,
        "meta_mean_motion_ddot": 0,
        "tle_line1": "1 60133U 24119A   25359.18868779 -.00000227  00000+0  00000+0 0  9998",
        "tle_line2": "2 60133   0.0152 183.0311 0001036 137.5029 126.1624  1.00271050  5213"
      },
      "geometry": {
        "type": "Point",
        "coordinates": [
          -29.913630839886192,
          0.003036966424052663
        ]
      }
    },
    {
      "type": "Feature",
      "properties": {
        "norad_id": 65815,
        "name": "FENGYUN 3H",
        "group": "weather",
        "lat": 39.824293309026324,
        "lon": 126.47083045375467,
        "alt_km": 822.0214749222587,
        "timestamp": "2025-12-25T20:42:38.331781+00:00",
        "meta_object_name": "FENGYUN 3H",
        "meta_object_id": "2025-219A",
        "meta_epoch": "2025-12-25T06:31:34.001184",
        "meta_mean_motion": 14.19907949,
        "meta_eccentricity": 8.479e-05,
        "meta_inclination": 98.6602,
        "meta_ra_of_asc_node": 298.5911,
        "meta_arg_of_pericenter": 108.8403,
        "meta_mean_anomaly": 251.2866,
        "meta_ephemeris_type": 0,
        "meta_classification_type": "U",
        "meta_norad_cat_id": 65815,
        "meta_element_set_no": 999,
        "meta_rev_at_epoch": 1270,
        "meta_bstar": 6.598625e-05,
        "meta_mean_motion_dot": 9.7e-07,
        "meta_mean_motion_ddot": 0,
        "tle_line1": "1 65815U 25219A   25359.27192131  .00000097  00000+0  65986-4 0  9997",
        "tle_line2": "2 65815  98.6602 298.5911 0000847 108.8403 251.2866 14.19907949 12709"
      },
      "geometry": {
        "type": "Point",
        "coordinates": [
          126.47083045375467,
          39.824293309026324
        ]
      }
    }
  ]
}